[{"OBJECT_NAME":"STARLINK-36061","OBJECT_ID":"2025-280AC","EPOCH":"2026-03-09T22:00:01.999584","MEAN_MOTION":14.98342573,"ECCENTRICITY":0.00023742,"INCLINATION":70.0018,"RA_OF_ASC_NODE":334.0435,"ARG_OF_PERICENTER":266.5384,"MEAN_ANOMALY":170.7781,"EPHEMERIS_TYPE":0,"CLASSIFICATION_TYPE":"U","NORAD_CAT_ID":66847,"ELEMENT_SET_NO":999,"REV_AT_EPOCH":572,"BSTAR":-0.0024858052,"MEAN_MOTION_DOT":-0.00029637,"MEAN_MOTION_DDOT":0},{"OBJECT_NAME":"FENGYUN 1C DEB","OBJECT_ID":"1999-025CXF","EPOCH":"2026-03-07T13:12:42.532128","MEAN_MOTION":14.81371774,"ECCENTRICITY":0.0143567,"INCLINATION":98.862,"RA_OF_ASC_NODE":185.4298,"ARG_OF_PERICENTER":249.2966,"MEAN_ANOMALY":109.2805,"EPHEMERIS_TYPE":0,"CLASSIFICATION_TYPE":"U","NORAD_CAT_ID":32314,"ELEMENT_SET_NO":999,"REV_AT_EPOCH":98685,"BSTAR":0.0017862,"MEAN_MOTION_DOT":0.00016648,"MEAN_MOTION_DDOT":0}]
